AMC-1 (GE-1)            
1 24315U 96054A   22019.54488899  .00000073  00000+0  00000+0 0  9996
2 24315   5.2686  74.4040 0003660 229.7871 239.9575  1.00271997 92887
AMC-3 (GE-3)            
1 24936U 97050A   22019.08254738 -.00000252  00000+0  00000+0 0  9994
2 24936   4.1806  80.8850 0003387 222.0442 133.2216  1.00272202 89305
ASTRA 1G                
1 25071U 97076A   22019.08217500  .00000123  00000+0  00000+0 0  9995
2 25071   5.9043  69.4194 0004246 224.6486 233.3539  1.00270013 88399
ASTRA 2A                
1 25462U 98050A   22019.10243316  .00000158  00000+0  00000+0 0  9997
2 25462   3.0323  87.1805 0002579 205.1003 251.0094  1.00270627 85598
AMC-4 (GE-4)            
1 25954U 99060A   22019.54187925  .00000098  00000+0  00000+0 0  9999
2 25954   1.1463  93.5839 0003361 211.9264 233.5558  1.00272741 81348
NSS-11 (AAP-1)          
1 26554U 00059A   22018.60154001  .00000037  00000+0  00000+0 0  9994
2 26554   0.0335 312.1006 0002869 349.9049 208.5161  1.00273445 78027
AMC-6 (GE-6)            
1 26580U 00067A   22018.68690413  .00000117  00000+0  00000+0 0  9991
2 26580   0.0470 284.8389 0002935  13.9197 287.5732  1.00270418 77770
ASTRA 2D                
1 26638U 00081A   22019.24512227  .00000138  00000+0  00000+0 0  9993
2 26638   6.9795  61.3033 0002189 230.0056 299.2043  1.00273446 77241
AMC-8 (GE-8)            
1 26639U 00081B   22019.49154098  .00000098  00000+0  00000+0 0  9994
2 26639   2.0749  90.2076 0002703 210.9117 219.6580  1.00271853 77133
ASTRA 2C                
1 26853U 01025A   22019.22593424 -.00000250  00000+0  00000+0 0  9993
2 26853   4.2068  80.6814 0003088 211.9900 194.7582  1.00275099 75432
ASTRA 3A                
1 27400U 02015B   22018.53527407 -.00000195  00000+0  00000+0 0  9991
2 27400   7.0849  60.1531 0001902 232.2422 291.4155  1.00270898 72571
NSS-7                   
1 27414U 02019A   22019.02105851 -.00000150  00000+0  00000+0 0  9991
2 27414   5.5520  72.5300 0002825 231.8765 161.5527  1.00271882 72413
NSS-6                   
1 27603U 02057A   22019.13487837  .00000118  00000+0  00000+0 0  9995
2 27603   1.2351  93.3958 0003551 204.6251  59.4894  1.00270412 69891
AMC-11 (GE-11)          
1 28252U 04017A   22019.07077293  .00000081  00000+0  00000+0 0  9997
2 28252   0.0329 316.0786 0002872 341.6405  75.1766  1.00271474 64556
AMC-15                  
1 28446U 04041A   22019.10931907 -.00000077  00000+0  00000+0 0  9990
2 28446   0.0362 314.0617 0002836 342.1818 116.5238  1.00272618 63209
NSS-10 (AMC-12)         
1 28526U 05003A   22019.44825368 -.00000241  00000+0  00000+0 0  9991
2 28526   2.4147  88.9544 0003287 202.4388 311.3278  1.00272521 62179
ASTRA 1KR               
1 29055U 06012A   22019.53128551  .00000131  00000+0  00000+0 0  9997
2 29055   0.0948 272.1427 0004760 351.4919  65.6944  1.00272285 57607
AMC-18                  
1 29644U 06054B   22018.55396674 -.00000203  00000+0  00000+0 0  9992
2 29644   0.0410 289.4998 0002791   6.9636 297.8761  1.00270254 55405
ASTRA 1L                
1 31306U 07016A   22019.53128551  .00000131  00000+0  00000+0 0  9994
2 31306   0.1064 290.8566 0005110   3.9752  34.5091  1.00273106 53904
ASTRA 4A (SIRIUS 4)     
1 32299U 07057A   22019.09781059  .00000044  00000+0  00000+0 0  9993
2 32299   0.0173  54.6056 0003154 241.4785 222.3849  1.00272024 51811
AMC-21                  
1 33275U 08038B   22019.55092962  .00000047  00000+0  00000+0 0  9990
2 33275   0.0491 285.2484 0003142  23.0016 244.0740  1.00277671 49321
ASTRA 1M                
1 33436U 08057A   22019.07340948  .00000132  00000+0  00000+0 0  9992
2 33436   0.0184  72.1796 0001235 187.0298 264.8585  1.00275054 48332
CIEL-2                  
1 33453U 08063A   22019.54752338  .00000070  00000+0  00000+0 0  9991
2 33453   0.0562 253.1820 0003189  45.7286 248.2441  1.00272451 47982
NSS-9                   
1 33749U 09008A   22018.79940067  .00000083  00000+0  00000+0 0  9997
2 33749   0.0327 316.2744 0002436 340.3929 292.3422  1.00271594 47387
SES-7 (PROTOSTAR 2)     
1 34941U 09027A   22019.04670068 -.00000333  00000+0  00000+0 0  9992
2 34941   0.0132  23.9051 0002329 259.2470 320.3062  1.00270273 46462
NSS-12                  
1 36032U 09058A   22019.15396667  .00000083  00000+0  00000+0 0  9992
2 36032   0.0574 278.9762 0002968  27.9668 283.9937  1.00273453 44763
SES-1                   
1 36516U 10016A   22019.57024465 -.00000103  00000+0  00000+0 0  9999
2 36516   0.0161 342.1289 0002792 324.5726 276.5081  1.00272175 42997
ASTRA 3B                
1 36581U 10021A   22019.07340948  .00000148  00000+0  00000+0 0  9997
2 36581   0.0490  54.4896 0004199 232.0302 241.8217  1.00269681 42508
SES-3                   
1 37748U 11035A   22019.10985766 -.00000090  00000+0  00000+0 0  9993
2 37748   0.0522 293.4772 0003204  17.4887 104.0396  1.00271948 38554
ASTRA 1N                
1 37775U 11041A   22019.17246944  .00000132  00000+0  00000+0 0  9991
2 37775   0.0450 356.3945 0002953 353.2878 210.1431  1.00273517 38256
SES-2                   
1 37809U 11049A   22019.54424537 -.00000184  00000+0  00000+0 0  9992
2 37809   0.0507 276.3600 0003337  31.8567 279.6040  1.00270959 37855
QUETZSAT 1              
1 37826U 11054A   22019.08150076 -.00000230  00000+0  00000+0 0  9992
2 37826   0.0101  18.1904 0002752 289.1633 123.4168  1.00269825 37953
SES-4                   
1 38087U 12007A   22019.37952566 -.00000157  00000+0  00000+0 0  9995
2 38087   0.0099  13.0356 0002390 295.8786 284.4317  1.00270028 36348
SES-5                   
1 38652U 12036A   22019.09789781  .00000045  00000+0  00000+0 0  9996
2 38652   0.0602 286.9793 0002260   9.9958 221.7057  1.00272157 34925
ASTRA 2F                
1 38778U 12051A   22019.07288866  .00000162  00000+0  00000+0 0  9998
2 38778   0.0869 247.6926 0003905  15.3494 269.8114  1.00270371 34141
SES-6                   
1 39172U 13026A   22019.08882709 -.00000249  00000+0  00000+0 0  9994
2 39172   0.0508 288.4070 0002662   1.5945 179.9159  1.00273314 31574
O3B FM5                 
1 39188U 13031A   22018.53462497 -.00000016  00000+0  00000+0 0  9996
2 39188   0.0316 359.2142 0002659 311.4910  49.2685  5.00116245156468
O3B FM4                 
1 39189U 13031B   22018.40043455 -.00000017  00000+0  00000+0 0  9993
2 39189   0.0561  16.7269 0003185 243.1958 100.0382  5.00116300156477
O3B FM2                 
1 39190U 13031C   22019.45238047 -.00000015  00000+0  00000+0 0  9992
2 39190   0.0607  19.1657 0005660 214.0735 126.7057  5.00115971156576
O3B PFM                 
1 39191U 13031D   22018.47975350 -.00000016  00000+0  00000+0 0  9990
2 39191   0.0397   5.3572 0002589 294.7064  59.9076  5.00115794156327
ASTRA 2E                
1 39285U 13056A   22019.03082696  .00000162  00000+0  00000+0 0  9997
2 39285   0.0585 352.5771 0002561 314.2629 211.1248  1.00269359 30443
SES-8                   
1 39460U 13071A   22019.47468083 -.00000257  00000+0  00000+0 0  9991
2 39460   0.0585 253.1339 0001115  76.9764  54.6033  1.00269054 29734
ASTRA 5B                
1 39617U 14011B   22019.11993868  .00000166  00000+0  00000+0 0  9993
2 39617   0.0575 309.7502 0003149 324.9650 278.4679  1.00274079 28729
O3B FM3                 
1 40079U 14038A   22019.38732909 -.00000015  00000+0  00000+0 0  9996
2 40079   0.0488  14.2867 0004066 319.1154  26.5738  5.00115414137597
O3B FM7                 
1 40080U 14038B   22018.53402206 -.00000016  00000+0  00000+0 0  9999
2 40080   0.0502  19.2148 0002415 235.8295 104.9258  5.00115964137306
O3B FM6                 
1 40081U 14038C   22017.56080032 -.00000018  00000+0  00000+0 0  9993
2 40081   0.0496  13.9422 0002649 284.1854  61.8426  5.00115534137202
O3B FM8                 
1 40082U 14038D   22019.41380646 -.00000015  00000+0  00000+0 0  9991
2 40082   0.0530  14.0429 0002816 285.3937  60.5320  5.00115490137594
O3B FM10                
1 40348U 14083A   22018.44040278 -.00000016  00000+0  00000+0 0  9993
2 40348   0.0448   4.7314 0002659 293.6178  61.6208  5.00115936129313
O3B FM11                
1 40349U 14083B   22018.45375060 -.00000016  00000+0  00000+0 0  9995
2 40349   0.0414   9.3042 0002028 279.7947  70.8760  5.00115271129334
O3B FM12                
1 40350U 14083C   22013.52395642 -.00000020  00000+0  00000+0 0  9993
2 40350   0.0423   9.2500 0002590 278.2513  72.4675  5.00115826129093
O3B FM9                 
1 40351U 14083D   22018.50782619 -.00000016  00000+0  00000+0 0  9996
2 40351   0.0404  10.0719 0002586 287.3974  62.5012  5.00115058129498
ASTRA 2G                
1 40364U 14089A   22019.06785550  .00000162  00000+0  00000+0 0  9996
2 40364   0.0444 324.6172 0002514  49.1698 157.2776  1.00273625 25878
SES-9                   
1 41380U 16013A   22019.51507853 -.00000333  00000+0  00000+0 0  9993
2 41380   0.0561 266.6152 0000905 103.3451  42.6411  1.00270303 21613
SES-10                  
1 42432U 17017A   22019.15528743 -.00000261  00000+0  00000+0 0  9998
2 42432   0.0157  32.9092 0002778 262.8826 171.7222  1.00270990 17584
SES-15                  
1 42709U 17026A   22019.54638392  .00000071  00000+0  00000+0 0  9998
2 42709   0.0185  11.0169 0000882 295.3454 240.0856  1.00273947 18047
SES-11 (ECHOSTAR 105)   
1 42967U 17063A   22018.66848966 -.00000077  00000+0  00000+0 0  9994
2 42967   0.0478 258.2838 0002249  25.3183 330.1352  1.00271979 15575
SES-14                  
1 43175U 18012B   22019.08743161 -.00000267  00000+0  00000+0 0  9990
2 43175   0.0167  30.1057 0001233 267.1779 165.1314  1.00270124 14913
O3B FM15                
1 43231U 18024A   22017.77452843 -.00000017  00000+0  00000+0 0  9997
2 43231   0.0471   1.4130 0002696 298.1062  60.4508  5.00115858 70404
O3B FM16                
1 43232U 18024B   22017.62796803 -.00000017  00000+0  00000+0 0  9999
2 43232   0.0493 357.2001 0002674 301.5354  61.2346  5.00115754 70322
O3B FM14                
1 43233U 18024C   22018.86688584 -.00000016  00000+0  00000+0 0  9992
2 43233   0.0506 356.2198 0002606 300.1536  63.5967  5.00116231 70387
O3B FM13                
1 43234U 18024D   22018.32038507 -.00000017  00000+0  00000+0 0  9999
2 43234   0.0291  13.0423 0002800 270.2609  76.6624  5.00114704 70593
SES-12                  
1 43488U 18049A   22019.47468083 -.00000258  00000+0  00000+0 0  9997
2 43488   0.0145  44.6117 0002481 234.7657 105.3304  1.00271188 13278
O3B FM20                
1 44112U 19020A   22017.69410319 -.00000017  00000+0  00000+0 0  9996
2 44112   0.0454   5.0943 0002337 295.0007  59.8787  5.00115358 50957
O3B FM19                
1 44113U 19020B   22006.08774779 -.00000023  00000+0  00000+0 0  9998
2 44113   0.0202 319.6486 0002263 339.8660  60.4587  5.00115839 50438
O3B FM17                
1 44114U 19020C   22018.40111089 -.00000017  00000+0  00000+0 0  9990
2 44114   0.0651   4.3799 0002672 297.6547  57.9363  5.00115365 50944
O3B FM18                
1 44115U 19020D   22018.34775701 -.00000017  00000+0  00000+0 0  9991
2 44115   0.0450   5.1085 0002827 294.1296  60.7305  5.00115678 51063
SES-17                  
1 49332U 21095A   22011.49370590 -.00000144  00000+0  00000+0 0  9999
2 49332   3.4304 257.5238 5277013 188.4739 281.6147  1.42226258  1512
